ONEWEB-0034             
1 45454U 20020AG  26066.19302135 -.00000601  00000+0 -17305-2 0  9996
2 45454  87.8877  41.3362 0001862  85.0151 275.1190 13.11415445289222
ONEWEB-0060             
1 45455U 20020AH  26066.01159977 -.00000010  00000+0 -62609-4 0  9995
2 45455  87.8853  41.3821 0001206 117.6758 242.4493 13.11414877289157
ONEWEB-0086             
1 45456U 20020AJ  26065.91412060  .00000575  00000+0  15877-2 0  9996
2 45456  87.8867  41.3894 0001925 106.9663 253.1676 13.11416555289200
ONEWEB-0088             
1 45457U 20020AK  26065.35799644 -.00000075  00000+0 -24838-3 0  9996
2 45457  87.8875  41.4640 0001669  76.0665 284.0649 13.11418132289064
ONEWEB-0102             
1 47258U 20100A   26066.12864464  .00000274  00000+0  72708-3 0  9993
2 47258  87.8996  10.9374 0001810  86.9641 273.1694 13.12442908251344
ONEWEB-0109             
1 47259U 20100B   26065.90840438  .00000441  00000+0  11906-2 0  9992
2 47259  87.9006  10.9546 0001935  83.7682 276.3667 13.12442394251149
ONEWEB-0110             
1 47260U 20100C   26066.08797098 -.00000210  00000+0 -61924-3 0  9999
2 47260  87.9003  10.9043 0001717  88.6177 271.5148 13.12443152251336
ONEWEB-0111             
1 47261U 20100D   26066.11847506 -.00000004  00000+0 -47549-4 0  9993
2 47261  87.9003  10.9166 0001661  80.6725 279.4592 13.12443629251173
ONEWEB-0114             
1 47262U 20100E   26066.07273614  .00000296  00000+0  78619-3 0  9994
2 47262  87.9005  10.9211 0002049  75.6411 284.4945 13.12440767251127
ONEWEB-0117             
1 47263U 20100F   26066.14049961  .00000414  00000+0  11153-2 0  9990
2 47263  87.9001  10.9023 0001860  82.6306 277.5033 13.12442520251148
ONEWEB-0118             
1 47264U 20100G   26066.09813875 -.00000452  00000+0 -12914-2 0  9998
2 47264  87.9002  10.9129 0001946  70.3825 289.7514 13.12441350251332
ONEWEB-0119             
1 47265U 20100H   26066.12356129  .00000174  00000+0  44874-3 0  9997
2 47265  87.8992  10.9337 0001799  78.8738 281.2593 13.12443409251312
ONEWEB-0120             
1 47266U 20100J   26066.07117656  .00000379  00000+0  10187-2 0  9998
2 47266  87.8995  10.9449 0001935  79.4182 280.7165 13.12441142251335
ONEWEB-0121             
1 47267U 20100K   26065.83047031  .00000452  00000+0  12198-2 0  9997
2 47267  87.8997  10.9695 0001740  81.4125 278.7200 13.12442090251212
ONEWEB-0122             
1 47268U 20100L   26066.12948760  .00000351  00000+0  94016-3 0  9998
2 47268  87.9008  10.9116 0001930  82.9231 277.2116 13.12446266251163
ONEWEB-0123             
1 47269U 20100M   26066.12525301  .00000255  00000+0  67393-3 0  9992
2 47269  87.8996  10.9318 0001827  74.7654 285.3676 13.12443564251301
ONEWEB-0124             
1 47270U 20100N   26065.81013375 -.00000084  00000+0 -26979-3 0  9999
2 47270  87.8990  10.9993 0001655  79.6749 280.4566 13.12443080251143
