[{"OBJECT_NAME":"ONEWEB-0034","OBJECT_ID":"2020-020AG","EPOCH":"2026-03-07T04:37:57.044640","MEAN_MOTION":13.11415445,"ECCENTRICITY":0.0001862,"INCLINATION":87.8877,"RA_OF_ASC_NODE":41.3362,"ARG_OF_PERICENTER":85.0151,"MEAN_ANOMALY":275.119,"EPHEMERIS_TYPE":0,"CLASSIFICATION_TYPE":"U","NORAD_CAT_ID":45454,"ELEMENT_SET_NO":999,"REV_AT_EPOCH":28922,"BSTAR":-0.0017305,"MEAN_MOTION_DOT":-6.01e-6,"MEAN_MOTION_DDOT":0},{"OBJECT_NAME":"ONEWEB-0060","OBJECT_ID":"2020-020AH","EPOCH":"2026-03-07T00:16:42.220128","MEAN_MOTION":13.11414877,"ECCENTRICITY":0.0001206,"INCLINATION":87.8853,"RA_OF_ASC_NODE":41.3821,"ARG_OF_PERICENTER":117.6758,"MEAN_ANOMALY":242.4493,"EPHEMERIS_TYPE":0,"CLASSIFICATION_TYPE":"U","NORAD_CAT_ID":45455,"ELEMENT_SET_NO":999,"REV_AT_EPOCH":28915,"BSTAR":-6.2609e-5,"MEAN_MOTION_DOT":-1.0e-7,"MEAN_MOTION_DDOT":0},{"OBJECT_NAME":"ONEWEB-0086","OBJECT_ID":"2020-020AJ","EPOCH":"2026-03-06T21:56:20.019840","MEAN_MOTION":13.11416555,"ECCENTRICITY":0.0001925,"INCLINATION":87.8867,"RA_OF_ASC_NODE":41.3894,"ARG_OF_PERICENTER":106.9663,"MEAN_ANOMALY":253.1676,"EPHEMERIS_TYPE":0,"CLASSIFICATION_TYPE":"U","NORAD_CAT_ID":45456,"ELEMENT_SET_NO":999,"REV_AT_EPOCH":28920,"BSTAR":0.0015877,"MEAN_MOTION_DOT":5.75e-6,"MEAN_MOTION_DDOT":0},{"OBJECT_NAME":"ONEWEB-0088","OBJECT_ID":"2020-020AK","EPOCH":"2026-03-06T08:35:30.892416","MEAN_MOTION":13.11418132,"ECCENTRICITY":0.00016697,"INCLINATION":87.8875,"RA_OF_ASC_NODE":41.464,"ARG_OF_PERICENTER":76.0665,"MEAN_ANOMALY":284.0649,"EPHEMERIS_TYPE":0,"CLASSIFICATION_TYPE":"U","NORAD_CAT_ID":45457,"ELEMENT_SET_NO":999,"REV_AT_EPOCH":28906,"BSTAR":-0.00024838124,"MEAN_MOTION_DOT":-7.5e-7,"MEAN_MOTION_DDOT":0},{"OBJECT_NAME":"ONEWEB-0102","OBJECT_ID":"2020-100A","EPOCH":"2026-03-07T03:05:14.896896","MEAN_MOTION":13.12442908,"ECCENTRICITY":0.000181,"INCLINATION":87.8996,"RA_OF_ASC_NODE":10.9374,"ARG_OF_PERICENTER":86.9641,"MEAN_ANOMALY":273.1694,"EPHEMERIS_TYPE":0,"CLASSIFICATION_TYPE":"U","NORAD_CAT_ID":47258,"ELEMENT_SET_NO":999,"REV_AT_EPOCH":25134,"BSTAR":0.00072708,"MEAN_MOTION_DOT":2.74e-6,"MEAN_MOTION_DDOT":0},{"OBJECT_NAME":"ONEWEB-0109","OBJECT_ID":"2020-100B","EPOCH":"2026-03-06T21:48:06.138432","MEAN_MOTION":13.12442394,"ECCENTRICITY":0.0001935,"INCLINATION":87.9006,"RA_OF_ASC_NODE":10.9546,"ARG_OF_PERICENTER":83.7682,"MEAN_ANOMALY":276.3667,"EPHEMERIS_TYPE":0,"CLASSIFICATION_TYPE":"U","NORAD_CAT_ID":47259,"ELEMENT_SET_NO":999,"REV_AT_EPOCH":25114,"BSTAR":0.0011906,"MEAN_MOTION_DOT":4.41e-6,"MEAN_MOTION_DDOT":0},{"OBJECT_NAME":"ONEWEB-0110","OBJECT_ID":"2020-100C","EPOCH":"2026-03-07T02:06:40.692672","MEAN_MOTION":13.12443152,"ECCENTRICITY":0.0001717,"INCLINATION":87.9003,"RA_OF_ASC_NODE":10.9043,"ARG_OF_PERICENTER":88.6177,"MEAN_ANOMALY":271.5148,"EPHEMERIS_TYPE":0,"CLASSIFICATION_TYPE":"U","NORAD_CAT_ID":47260,"ELEMENT_SET_NO":999,"REV_AT_EPOCH":25133,"BSTAR":-0.00061924,"MEAN_MOTION_DOT":-2.1e-6,"MEAN_MOTION_DDOT":0},{"OBJECT_NAME":"ONEWEB-0111","OBJECT_ID":"2020-100D","EPOCH":"2026-03-07T02:50:36.245184","MEAN_MOTION":13.12443629,"ECCENTRICITY":0.0001661,"INCLINATION":87.9003,"RA_OF_ASC_NODE":10.9166,"ARG_OF_PERICENTER":80.6725,"MEAN_ANOMALY":279.4592,"EPHEMERIS_TYPE":0,"CLASSIFICATION_TYPE":"U","NORAD_CAT_ID":47261,"ELEMENT_SET_NO":999,"REV_AT_EPOCH":25117,"BSTAR":-4.7549e-5,"MEAN_MOTION_DOT":-4.0e-8,"MEAN_MOTION_DDOT":0},{"OBJECT_NAME":"ONEWEB-0114","OBJECT_ID":"2020-100E","EPOCH":"2026-03-07T01:44:44.402496","MEAN_MOTION":13.12440767,"ECCENTRICITY":0.0002049,"INCLINATION":87.9005,"RA_OF_ASC_NODE":10.9211,"ARG_OF_PERICENTER":75.6411,"MEAN_ANOMALY":284.4945,"EPHEMERIS_TYPE":0,"CLASSIFICATION_TYPE":"U","NORAD_CAT_ID":47262,"ELEMENT_SET_NO":999,"REV_AT_EPOCH":25112,"BSTAR":0.00078619,"MEAN_MOTION_DOT":2.96e-6,"MEAN_MOTION_DDOT":0},{"OBJECT_NAME":"ONEWEB-0117","OBJECT_ID":"2020-100F","EPOCH":"2026-03-07T03:22:19.166304","MEAN_MOTION":13.1244252,"ECCENTRICITY":0.000186,"INCLINATION":87.9001,"RA_OF_ASC_NODE":10.9023,"ARG_OF_PERICENTER":82.6306,"MEAN_ANOMALY":277.5033,"EPHEMERIS_TYPE":0,"CLASSIFICATION_TYPE":"U","NORAD_CAT_ID":47263,"ELEMENT_SET_NO":999,"REV_AT_EPOCH":25114,"BSTAR":0.0011153,"MEAN_MOTION_DOT":4.14e-6,"MEAN_MOTION_DDOT":0},{"OBJECT_NAME":"ONEWEB-0118","OBJECT_ID":"2020-100G","EPOCH":"2026-03-07T02:21:19.188000","MEAN_MOTION":13.1244135,"ECCENTRICITY":0.0001946,"INCLINATION":87.9002,"RA_OF_ASC_NODE":10.9129,"ARG_OF_PERICENTER":70.3825,"MEAN_ANOMALY":289.7514,"EPHEMERIS_TYPE":0,"CLASSIFICATION_TYPE":"U","NORAD_CAT_ID":47264,"ELEMENT_SET_NO":999,"REV_AT_EPOCH":25133,"BSTAR":-0.0012914,"MEAN_MOTION_DOT":-4.52e-6,"MEAN_MOTION_DDOT":0},{"OBJECT_NAME":"ONEWEB-0119","OBJECT_ID":"2020-100H","EPOCH":"2026-03-07T02:57:55.695456","MEAN_MOTION":13.12443409,"ECCENTRICITY":0.0001799,"INCLINATION":87.8992,"RA_OF_ASC_NODE":10.9337,"ARG_OF_PERICENTER":78.8738,"MEAN_ANOMALY":281.2593,"EPHEMERIS_TYPE":0,"CLASSIFICATION_TYPE":"U","NORAD_CAT_ID":47265,"ELEMENT_SET_NO":999,"REV_AT_EPOCH":25131,"BSTAR":0.00044874,"MEAN_MOTION_DOT":1.74e-6,"MEAN_MOTION_DDOT":0},{"OBJECT_NAME":"ONEWEB-0120","OBJECT_ID":"2020-100J","EPOCH":"2026-03-07T01:42:29.654784","MEAN_MOTION":13.12441142,"ECCENTRICITY":0.0001935,"INCLINATION":87.8995,"RA_OF_ASC_NODE":10.9449,"ARG_OF_PERICENTER":79.4182,"MEAN_ANOMALY":280.7165,"EPHEMERIS_TYPE":0,"CLASSIFICATION_TYPE":"U","NORAD_CAT_ID":47266,"ELEMENT_SET_NO":999,"REV_AT_EPOCH":25133,"BSTAR":0.0010187,"MEAN_MOTION_DOT":3.79e-6,"MEAN_MOTION_DDOT":0},{"OBJECT_NAME":"ONEWEB-0121","OBJECT_ID":"2020-100K","EPOCH":"2026-03-06T19:55:52.634784","MEAN_MOTION":13.1244209,"ECCENTRICITY":0.000174,"INCLINATION":87.8997,"RA_OF_ASC_NODE":10.9695,"ARG_OF_PERICENTER":81.4125,"MEAN_ANOMALY":278.72,"EPHEMERIS_TYPE":0,"CLASSIFICATION_TYPE":"U","NORAD_CAT_ID":47267,"ELEMENT_SET_NO":999,"REV_AT_EPOCH":25121,"BSTAR":0.0012198,"MEAN_MOTION_DOT":4.52e-6,"MEAN_MOTION_DDOT":0},{"OBJECT_NAME":"ONEWEB-0122","OBJECT_ID":"2020-100L","EPOCH":"2026-03-07T03:06:27.728640","MEAN_MOTION":13.12446266,"ECCENTRICITY":0.000193,"INCLINATION":87.9008,"RA_OF_ASC_NODE":10.9116,"ARG_OF_PERICENTER":82.9231,"MEAN_ANOMALY":277.2116,"EPHEMERIS_TYPE":0,"CLASSIFICATION_TYPE":"U","NORAD_CAT_ID":47268,"ELEMENT_SET_NO":999,"REV_AT_EPOCH":25116,"BSTAR":0.00094016,"MEAN_MOTION_DOT":3.51e-6,"MEAN_MOTION_DDOT":0},{"OBJECT_NAME":"ONEWEB-0123","OBJECT_ID":"2020-100M","EPOCH":"2026-03-07T03:00:21.860064","MEAN_MOTION":13.12443564,"ECCENTRICITY":0.0001827,"INCLINATION":87.8996,"RA_OF_ASC_NODE":10.9318,"ARG_OF_PERICENTER":74.7654,"MEAN_ANOMALY":285.3676,"EPHEMERIS_TYPE":0,"CLASSIFICATION_TYPE":"U","NORAD_CAT_ID":47269,"ELEMENT_SET_NO":999,"REV_AT_EPOCH":25130,"BSTAR":0.00067393,"MEAN_MOTION_DOT":2.55e-6,"MEAN_MOTION_DDOT":0},{"OBJECT_NAME":"ONEWEB-0124","OBJECT_ID":"2020-100N","EPOCH":"2026-03-06T19:26:35.556000","MEAN_MOTION":13.1244308,"ECCENTRICITY":0.0001655,"INCLINATION":87.899,"RA_OF_ASC_NODE":10.9993,"ARG_OF_PERICENTER":79.6749,"MEAN_ANOMALY":280.4566,"EPHEMERIS_TYPE":0,"CLASSIFICATION_TYPE":"U","NORAD_CAT_ID":47270,"ELEMENT_SET_NO":999,"REV_AT_EPOCH":25114,"BSTAR":-0.00026979,"MEAN_MOTION_DOT":-8.4e-7,"MEAN_MOTION_DDOT":0}]
